#dP2023  7 22  0  0  0.00000000      96 __u+U IGS14 FIT  IAC
## 2271 518400.00000000   900.00000000 60147 0.0000000000000
+  118   C06C07C08C09C10C11C12C13C14C16C19C20C21C22C23C24C25
+        C26C27C28C29C30C32C33C34C35C36C37C38C39C40C41C42C43
+        C44C45C46E02E03E04E05E07E08E09E10E11E12E13E14E15E18
+        E19E21E24E25E26E27E30E31E34E36G01G02G03G04G05G06G07
+        G08G09G10G11G12G13G14G15G16G17G18G19G20G21G22G23G24
+        G25G26G27G28G29G30G31G32J02J03J04R01R02R03R04R05R07
+        R08R09R11R12R13R14R15R16R17R18R19R20R21R22R24R25  0
++         7  7  7  7  7  7  7  7  7  7  6  6  6  6  6  6  6
++         7  6  6  6  6  6  6  6  6  6  6  6  6  6  6  6  6
++         7  6  6  5  4  4  4  4  4  5  4  4  4  4  4  4  5
++         5  4  4  4  5  4  4  4  4  4  4  3  3  3  4  3  4
++         4  3  3  4  3  4  3  4  4  3  4  3  4  3  4  3  3
++         3  4  3  3  4  3  3  3  9  9 10  7  6  6  6  7  7
++         7  7  7  7  8  7  7  7  6  7  8  8  7  7  7  8  0
%c M  cc GPS ccc cccc cccc cccc cccc ccccc ccccc ccccc ccccc
%c cc cc ccc ccc cccc cccc cccc cccc ccccc ccccc ccccc ccccc
%f  1.2500000  1.025000000  0.00000000000  0.000000000000000
%f  0.0000000  0.000000000  0.00000000000  0.000000000000000
%i    0    0    0    0      0      0      0      0         0
%i    0    0    0    0      0      0      0      0         0
/* INFORMATION & ANALYSIS CENTER (IAC)            FINAL DATA
/* S/V CLOCKS ARE ALIGNED TO GNSS TIME                      
/* G:C1WC2W R:C1PC2P E:C1XC5X C:C2IC6I J:C1CC2S             
/* PCV:IGS20_2247 OL/AL:FES2004  NONE     YN ORB:CoN CLK:CoN
*  2023 07 22 16 30  0.00000000
PC06 -17460.412855  25812.624347  28306.089557    653.971706
PC07  -9184.991161  41014.878444   4595.950511   -362.430267
PC08   1166.004523  26147.927894 -33007.178425    418.909412
PC09  -6511.159589  25654.116231  33129.610842    385.164712
PC10  -4759.149244  42193.949345   -433.005675   -122.253905
PC11 -22839.489850  15320.762219  -4757.427652    739.694406
PC12 -24494.558557   3243.287038  13019.659681    808.801216
PC13   7178.186796  29613.608967 -28871.077569    320.338773
PC14 -11958.915607  18454.744976 -17205.723939    100.446520
PC16 -18413.908376  25463.492108  28211.831335     -4.338546
PC19   6949.533089 -25189.278503   9776.892048   -944.482794
PC20  14625.836946 -10449.204659  21342.614849    417.269536
PC21 -14080.412880 -11856.548514 -20955.165359   -938.254292
PC22  -5141.692344 -26188.383038  -8106.377465   -384.817067
PC23  11332.307203  20037.761500  15785.156170   -933.464232
PC24 -22783.887833    -23.106944  16124.881542    201.235329
PC25  -6838.514253  14841.533182  22614.923380    173.389208
PC26 -24702.059833 -12967.231154   1189.880125   -152.422611
PC27  20442.800980   3649.332019 -18667.818931    173.371426
PC28   4957.451908  15359.099214 -22765.485406    129.338742
PC29  15006.996555 -19586.202765  13022.874838    150.727972
PC30  25153.959869 -11107.606410  -4819.867236     -2.520692
PC32  14163.152599  11891.189797  20914.084813   -537.120357
PC33  -6843.671149  25216.445608  -9831.906409   -919.127598
PC34 -24937.318291  12013.169513   3465.470855    220.472974
PC35  -5125.028584 -15449.627435  22655.698499    583.334409
PC36   7946.055037 -14230.383443 -22622.056192   -315.730349
PC37  24062.637935  14107.819359   -229.565208   -796.317050
PC38  -7363.616622  23113.325871 -34431.984032     93.254620
PC39 -24006.183197  25612.905953  23217.594869     -3.941169
PC40 -15465.010212  38567.174680   7934.541261    -30.293336
PC41   4858.380020  26461.640583   7485.792573   -898.803356
PC42 -14939.415162   8975.127977 -21762.484497   -603.271184
PC43 -15716.190833  19496.638305 -12310.448585     31.872035
PC44 -20482.383040  -3125.552541  18665.471458    176.649002
PC45 -11874.813455 -19979.314719 -15453.607476     -4.944812
PC46  21991.543347  -1067.790336 -17119.066473    -70.821703
PE02  14528.361657  -8387.961541 -24384.735001     51.255309
PE03  20702.536552 -18266.682708  10649.705320    -38.536512
PE04 -10738.496209  26501.523547   7671.020575   -172.446777
PE05  18675.260326    753.003315  22956.068015      1.987488
PE07  -5464.591818 -19453.371414 -21619.722623    -61.829378
PE08  11024.827555 -26465.480122  -7329.989741   -118.448298
PE09   5238.507512  19516.015795  21639.686277    -93.685882
PE10   4204.460736  16003.048021 -24556.344226   -550.434279
PE11  15890.610991  14147.558772 -20600.227695   2548.879663
PE12  -7073.221814  15384.279308 -24287.512128   -628.326394
PE13 -15175.495248 -14267.229301  21026.638100    -19.340401
PE14  21091.959534  -9526.625087 -12916.884989    289.605162
PE15   7491.322759 -15240.688139  24241.737604    -39.124811
PE18 -19746.267829  23769.995026    645.741928    325.828400
PE19 -21184.418439  16180.509655 -12862.786983  -2018.920869
PE21 -20067.370025 -11573.682509  18429.371379   -542.224355
PE24  13800.791670  26162.417633   -853.596968   -223.793869
PE25  20063.843462  11934.921897 -18187.470506   -608.694998
PE26 -28849.557065  -4576.913625   4807.298459    170.572863
PE27 -14267.498904 -25895.560281   1485.796465   -105.626451
PE30    377.174046 -24594.862189 -16475.411667   -356.541166
PE31    112.161398  24804.678401  16165.065388     -0.957454
PE34  25434.239455  -7328.077826  13225.178574    -57.463663
PE36  28648.572990   4966.297564  -5561.413617    -89.770057
PG01  13821.073302  13628.468851 -18628.561372    171.783050
PG02   7491.681327  14222.195698 -20669.799326   -573.516339
PG03  12858.462097  23162.573607   2502.298545   -221.553601
PG04   6566.721425  15292.176928  20683.856319    103.207981
PG05  -2871.245046 -23258.573574  12213.311391   -135.885405
PG06  22982.250384  -5930.124749  12077.159627    575.361207
PG07  25195.307475   6799.931486   6634.884632    117.655684
PG08  -2500.145780  22182.797355 -14159.099948   -133.482048
PG09  14238.419209   5968.843619  21537.521037   -105.835727
PG10 -15228.643326   1699.758678 -21555.647871    -46.201360
PG11  10182.131694 -13137.441002  20714.032312   -287.149704
PG12  -9137.747324 -24974.555110   -920.898112   -403.815191
PG13  11603.600661 -22002.377671  -9186.618705    550.469434
PG14  16818.811742   1675.660688 -20504.252910    130.426307
PG15  -1146.906408 -22256.505901 -14729.411564     60.448281
PG16  -3157.300738  21274.237762  14974.374277   -477.727937
PG17  19974.130534 -10259.788502 -13834.870634    721.463531
PG18 -25981.174248  -4862.565467   3414.020309   -355.099635
PG19  20170.818018 -15109.851036  -8048.033963    347.377069
PG20   4398.614022 -17784.961680  19327.352995    421.287656
PG21   5058.494053  14684.958046 -21111.123494    151.834648
PG22 -18633.233324  18239.043063  -4138.309313    516.453033
PG23 -18006.513562 -11055.632215 -16189.440283     46.138386
PG24  -9733.583909 -14860.137500 -20222.305650   -266.094861
PG25 -16866.448966 -17806.567854  10207.559292    457.683894
PG26 -10477.647900  12638.123878  20707.349751    235.646056
PG27 -12067.996563  23048.038746  -4356.834745     -8.130992
PG28 -23869.551809   5936.667849  10000.844545     81.430566
PG29 -12649.797679  -7932.450670  21919.331421   -606.144469
PG30  26503.085147    -49.248352  -3154.017446   -502.365638
PG31 -16156.063456  11128.749288  17916.630573   -220.523415
PG32 -19247.569339  13370.797091 -12126.210147   -526.234613
PJ02 -26546.617846  23009.401263  28439.811605     -1.649574
PJ03 -34236.248370  19246.493187 -10824.286789     -0.269095
PJ04 -18757.093127  32617.311108 -14061.518674     97.345783
PR01 -10142.424451  -5242.555900 -22809.757038     61.921553
PR02 -11473.987763  13922.937191 -17959.332112    -22.597426
PR03  -6154.242625  24576.760683  -2649.530969     81.966745
PR04   2117.034233  21375.489867  13776.041527    195.845886
PR05   9399.927509   6666.870024  22763.763331    116.173900
PR07   5882.492314 -24774.853282   1937.337928     60.759900
PR08  -2349.871544 -21316.107281 -13779.053379    -71.764479
PR09  14359.137464  -1650.256562 -21015.915446    132.589261
PR11 -13989.838039 -18499.586639 -10581.061269   -111.207642
PR12 -20610.214709 -12416.005072   8517.753956     29.371959
PR13 -15443.713897   -275.251709  20291.497885    -37.364483
PR14    349.724824  13958.059538  21370.680379     24.992851
PR15  14626.526930  18677.237538   9412.828232     87.640641
PR16  20669.269865  12543.409845  -8174.050350     16.947967
PR17 -12120.479082  12878.474429 -18400.485388      2.095517
PR18   5177.285404   9286.473752 -23179.211754     92.883742
PR19  18804.428243   2429.223907 -17063.583723   -240.751100
PR20  24109.472643  -8051.636916   2346.990246    -97.035728
PR21  11007.824172 -12686.342663  19178.365578    -24.642089
PR22  -5961.165193  -9526.321547  22920.551457     99.698117
PR24 -23622.552797   9199.215411  -2924.590584    -17.557130
PR25  12628.140481 -12549.079151  18257.643930     46.172379
EOF
